SPACEBEE-118            
1 52012U 22026E   22258.53014410  .00013487  00000+0  67311-3 0  9992
2 52012  97.5076 257.5103 0023556 330.3134  29.6761 15.17381591 27851
SPACEBEE-120            
1 52013U 22026F   22258.54449812  .00012961  00000+0  65076-3 0  9994
2 52013  97.5068 257.4649 0025370 322.6562  37.2906 15.17143145 27848
SPACEBEE-122            
1 52014U 22026G   22258.54332334  .00014247  00000+0  71421-3 0  9995
2 52014  97.5068 257.4713 0024260 325.4797  34.4860 15.17197600 27842
SPACEBEE-119            
1 52015U 22026H   22258.50352766  .00012564  00000+0  63731-3 0  9998
2 52015  97.5072 257.3978 0025068 326.6274  33.3378 15.16797815 27834
SPACEBEE-115            
1 52016U 22026J   22258.54998755  .00013823  00000+0  69455-3 0  9995
2 52016  97.5079 257.4926 0024790 325.8680  34.0958 15.17114209 27843
SPACEBEENZ-14           
1 52018U 22026L   22258.43005903  .00020762  00000+0  10155-2 0  9991
2 52018  97.5070 257.4855 0024244 325.8449  34.1224 15.17975211 27838
SPACEBEENZ-11           
1 52019U 22026M   22258.55154266  .00019098  00000+0  92985-3 0  9994
2 52019  97.5069 257.6280 0024030 325.4002  34.5667 15.18156661 27819
SPACEBEE-127            
1 52020U 22026N   22258.49196261  .00013176  00000+0  66461-3 0  9991
2 52020  97.5067 257.3889 0024819 325.7243  34.2388 15.16989921 27780
SPACEBEE-125            
1 52021U 22026P   22258.45525639  .00019073  00000+0  94302-3 0  9990
2 52021  97.5061 257.4240 0026383 325.6394  34.3133 15.17567983 27703
SPACEBEE-117            
1 52022U 22026Q   22258.48810651  .00013480  00000+0  67876-3 0  9997
2 52022  97.5079 257.4228 0024825 325.7061  34.2568 15.17045516 27704
SPACEBEE-116            
1 52023U 22026R   22258.54565593  .00013865  00000+0  69548-3 0  9992
2 52023  97.5082 257.5009 0024650 325.9796  33.9856 15.17175971 27716
SPACEBEE-113            
1 52024U 22026S   22258.53972616  .00014599  00000+0  73033-3 0  9999
2 52024  97.5078 257.5001 0026288 322.1471  37.7913 15.17219709 27716
SPACEBEE-112            
1 52025U 22026T   22258.52381839  .00015056  00000+0  74722-3 0  9995
2 52025  97.5078 257.5205 0024414 325.8992  34.0672 15.17534134 27714
SPACEBEENZ-13           
1 52026U 22026U   22258.22953506  .00021631  00000+0  10563-2 0  9997
2 52026  97.5064 257.2913 0024219 326.5880  33.3825 15.18022745 27588
SPACEBEE-123            
1 52027U 22026V   22258.49904195  .00013547  00000+0  68529-3 0  9990
2 52027  97.5060 257.3711 0024829 326.1604  33.8044 15.16879861 27618
SPACEBEENZ-12           
1 52028U 22026W   22258.50799566  .00015597  00000+0  76834-3 0  9992
2 52028  97.5090 257.5534 0024200 325.9685  33.9995 15.17790151 27718
SPACEBEE-124            
1 52029U 22026X   22258.50131657  .00012518  00000+0  63459-3 0  9993
2 52029  97.5060 257.3674 0024816 326.4800  33.4862 15.16825216 26332
SPACEBEE-136            
1 52164U 22033H   22258.46908175  .00017451  00000+0  69861-3 0  9997
2 52164  97.3754 338.4835 0009752  67.2686 292.9581 15.25082086 25399
SPACEBEE-138            
1 52166U 22033K   22258.21545112  .00022452  00000+0  89966-3 0  9995
2 52166  97.3778 338.2607 0011014  58.6758 301.5556 15.24985222 25358
SPACEBEE-130            
1 52176U 22033V   22258.47310571  .00022052  00000+0  87999-3 0  9993
2 52176  97.3763 338.4982 0007817  64.9015 295.3033 15.25154832 25393
SPACEBEE-139            
1 52177U 22033W   22258.18728174  .00021913  00000+0  89135-3 0  9993
2 52177  97.3783 338.1509 0010734  64.4918 295.7428 15.24489176 25345
SPACEBEE-129            
1 52179U 22033Y   22258.19269837  .00020600  00000+0  83963-3 0  9997
2 52179  97.3764 338.1169 0009514  68.4650 291.7601 15.24445178 25342
SPACEBEE-134            
1 52180U 22033Z   22258.53244782  .00016446  00000+0  67998-3 0  9992
2 52180  97.3758 338.4246 0009761  66.9736 293.2530 15.24007867 25390
SPACEBEE-131            
1 52181U 22033AA  22258.18272028  .00020848  00000+0  84648-3 0  9990
2 52181  97.3771 338.1356 0009573  69.3578 290.8686 15.24570949 25343
SPACEBEE-128            
1 52182U 22033AB  22258.18953990  .00019441  00000+0  79114-3 0  9994
2 52182  97.3786 338.1548 0009811  68.3682 291.8599 15.24507716 25349
SPACEBEE-133            
1 52183U 22033AC  22258.50871096  .00017320  00000+0  70344-3 0  9997
2 52183  97.3769 338.4636 0009651  68.0369 292.1893 15.24598961 25380
SPACEBEE-132            
1 52185U 22033AE  22258.16325526  .00022700  00000+0  91320-3 0  9998
2 52185  97.3778 338.1752 0009497  80.0641 280.1668 15.24863999 25342
SPACEBEE-137            
1 52186U 22033AF  22258.18574632  .00020520  00000+0  83658-3 0  9998
2 52186  97.3771 338.1408 0010003  68.0629 292.1671 15.24432505 25343
SPACEBEE-135            
1 52187U 22033AG  22258.16205336  .00022350  00000+0  89923-3 0  9993
2 52187  97.3783 338.1898 0009133  65.2064 295.0123 15.24866318 25341
SPACEBEE-143            
1 52394U 22047A   22258.49976958  .00010634  00000+0  57948-3 0  9993
2 52394  97.4461 341.4383 0008023 215.6401 144.4296 15.14552896 21979
SPACEBEENZ-15           
1 52395U 22047B   22258.19536269  .00017750  00000+0  94342-3 0  9993
2 52395  97.4456 341.2303 0008265 215.0366 145.0324 15.15315068 21930
SPACEBEENZ-16           
1 52396U 22047C   22258.19527877  .00018101  00000+0  96201-3 0  9996
2 52396  97.4455 341.2301 0008254 215.6222 144.4461 15.15313743 21936
SPACEBEENZ-17           
1 52397U 22047D   22258.19701469  .00017455  00000+0  92868-3 0  9994
2 52397  97.4457 341.2285 0008357 215.5300 144.5376 15.15281998 21932
SPACEBEENZ-18           
1 52398U 22047E   22258.52793602  .00014074  00000+0  74999-3 0  9991
2 52398  97.4457 341.5512 0008262 214.1631 145.9071 15.15275425 21986
SPACEBEE-140            
1 52399U 22047F   22258.54343423  .00011276  00000+0  60736-3 0  9991
2 52399  97.4459 341.5322 0008197 213.3717 146.6999 15.14949905 22002
SPACEBEE-141            
1 52400U 22047G   22258.22603205  .00013044  00000+0  70729-3 0  9994
2 52400  97.4462 341.1924 0008097 213.8847 146.1869 15.14677080 21935
SPACEBEE-142            
1 52401U 22047H   22258.23402716  .00013449  00000+0  73219-3 0  9996
2 52401  97.4460 341.1793 0007968 214.7569 145.3144 15.14525768 21937
SPACEBEENZ-20           
1 52402U 22047J   22258.46781705  .00013051  00000+0  69716-3 0  9996
2 52402  97.4450 341.4662 0008920 217.5024 142.5587 15.15201227 21977
SPACEBEENZ-22           
1 52403U 22047K   22258.20768984  .00015797  00000+0  84491-3 0  9999
2 52403  97.4451 341.2023 0008892 218.0588 142.0017 15.15113885 21938
SPACEBEENZ-19           
1 52404U 22047L   22258.46616906  .00016906  00000+0  90078-3 0  9995
2 52404  97.4450 341.4692 0009006 218.2663 141.7931 15.15232794 21972
SPACEBEENZ-21           
1 52405U 22047M   22258.46871266  .00017510  00000+0  93386-3 0  9995
2 52405  97.4448 341.4654 0008951 217.8885 142.1718 15.15191007 21976
SPACEBEE-148            
1 52406U 22047N   22258.48429621  .00015417  00000+0  83038-3 0  9999
2 52406  97.4453 341.4459 0008741 217.1394 142.9234 15.14870259 21974
SPACEBEE-149            
1 52407U 22047P   22258.17462780  .00014468  00000+0  78849-3 0  9998
2 52407  97.4453 341.0920 0008736 218.8750 141.1855 15.14466086 21926
SPACEBEE-153            
1 52408U 22047Q   22258.48733462  .00010566  00000+0  57189-3 0  9990
2 52408  97.4482 341.4918 0008626 229.3418 130.7065 15.14790615 21976
SPACEBEE-150            
1 52409U 22047R   22257.17909063  .00010108  00000+0  55141-3 0  9996
2 52409  97.4458 340.1318 0008646 223.5666 136.4884 15.14521794 21773
SPACEBEE-144            
1 52410U 22047S   22258.23522613  .00013460  00000+0  73181-3 0  9996
2 52410  97.4463 341.1805 0008004 217.7936 142.2735 15.14573251 21939
SPACEBEE-145            
1 52411U 22047T   22258.23907575  .00013561  00000+0  73869-3 0  9996
2 52411  97.4460 341.1735 0007939 217.3258 142.7424 15.14504658 21933
SPACEBEE-146            
1 52412U 22047U   22258.18273378  .00013175  00000+0  72178-3 0  9991
2 52412  97.4454 341.0915 0008042 218.8951 141.1703 15.14307497 21922
SPACEBEE-151            
1 52413U 22047V   22258.50485240  .00010444  00000+0  57008-3 0  9992
2 52413  97.4453 341.4182 0008624 219.2419 140.8189 15.14493741 21979
SPACEBEE-152            
1 52414U 22047W   22258.18177380  .00013721  00000+0  74990-3 0  9990
2 52414  97.4451 341.0821 0008594 220.5296 139.5296 15.14379939 21929
SPACEBEE-147            
1 52415U 22047X   22258.17887874  .00013647  00000+0  74471-3 0  9997
2 52415  97.4460 341.1025 0007923 220.1652 139.8995 15.14439334 21929
SPACEBEE-155            
1 52416U 22047Y   22258.19203689  .00011065  00000+0  61062-3 0  9990
2 52416  97.4442 341.0660 0009049 225.2244 134.8252 15.14082655 21929
SPACEBEE-154            
1 52417U 22047Z   22258.18508980  .00012878  00000+0  70548-3 0  9994
2 52417  97.4451 341.0804 0008552 222.1605 137.8970 15.14311509 21928
